{
    "links": {
        "self": "http://www.neowsapp.com/rest/v1/neo/3638507?api_key=iIulBulltgU6a56xZRHN4H3l9WmuAYTsLGpBGhQ2"
    },
    "id": "3638507",
    "neo_reference_id": "3638507",
    "name": "(2013 JE34)",
    "designation": "2013 JE34",
    "nasa_jpl_url": "http://ssd.jpl.nasa.gov/sbdb.cgi?sstr=3638507",
    "absolute_magnitude_h": 23.1,
    "estimated_diameter": {
        "kilometers": {
            "estimated_diameter_min": 0.063760979,
            "estimated_diameter_max": 0.1425738833
        },
        "meters": {
            "estimated_diameter_min": 63.7609789875,
            "estimated_diameter_max": 142.5738833281
        },
        "miles": {
            "estimated_diameter_min": 0.0396192233,
            "estimated_diameter_max": 0.0885912765
        },
        "feet": {
            "estimated_diameter_min": 209.1895703015,
            "estimated_diameter_max": 467.7620993781
        }
    },
    "is_potentially_hazardous_asteroid": false,
    "close_approach_data": [
        {
            "close_approach_date": "2013-05-07",
            "close_approach_date_full": "2013-May-07 13:10",
            "epoch_date_close_approach": 1367932200000,
            "relative_velocity": {
                "kilometers_per_second": "13.5822584644",
                "kilometers_per_hour": "48896.130471728",
                "miles_per_hour": "30382.1539589468"
            },
            "miss_distance": {
                "astronomical": "0.1677613092",
                "lunar": "65.2591492788",
                "kilometers": "25096734.524731404",
                "miles": "15594387.7123012152"
            },
            "orbiting_body": "Earth"
        }
    ],
    "orbital_data": {
        "orbit_id": "5",
        "orbit_determination_date": "2017-04-06 08:45:47",
        "first_observation_date": "2013-05-15",
        "last_observation_date": "2013-05-17",
        "data_arc_in_days": 2,
        "observations_used": 16,
        "orbit_uncertainty": "8",
        "minimum_orbit_intersection": ".155665",
        "jupiter_tisserand_invariant": "4.143",
        "epoch_osculation": "2456428.5",
        "eccentricity": ".3155071915586105",
        "semi_major_axis": "1.634899657391071",
        "inclination": "25.51720275099106",
        "ascending_node_longitude": "232.5226682785814",
        "orbital_period": "763.5457797951484",
        "perihelion_distance": "1.11907705800748",
        "perihelion_argument": "323.6113243195923",
        "aphelion_distance": "2.150722256774663",
        "perihelion_time": "2456383.990880399511",
        "mean_anomaly": "20.98535998781229",
        "mean_motion": ".471484499719957",
        "equinox": "J2000",
        "orbit_class": {
            "orbit_class_type": "AMO",
            "orbit_class_description": "Near-Earth asteroid orbits similar to that of 1221 Amor",
            "orbit_class_range": "1.017 AU < q (perihelion) < 1.3 AU"
        }
    },
    "is_sentry_object": false
}